ONEWEB-0208             
1 48243U 21031AK  25170.23036327  .00000105  00000+0  24897-3 0  9997
2 48243  87.9034   1.9123 0002036  88.0483 272.0880 13.14501659200624
ONEWEB-0200             
1 48244U 21031AL  25170.27001151 -.00000045  00000+0 -15582-3 0  9995
2 48244  87.9028   1.8960 0001950  88.1458 271.9895 13.14502078200555
ONEWEB-0217             
1 48245U 21031AM  25170.28585978  .00000281  00000+0  72369-3 0  9997
2 48245  87.9030   1.8776 0002156  89.8099 270.3278 13.14501143200507
ONEWEB-0211             
1 48767U 21045A   25170.40661759 -.00000093  00000+0 -27988-3 0  9997
2 48767  87.9049 331.4666 0002075 101.6781 258.4582 13.16080202196720
ONEWEB-0223             
1 48768U 21045B   25170.70403475 -.00000003  00000+0 -40827-4 0  9999
2 48768  87.9051 331.4478 0002173 106.1862 253.9507 13.15548233196745
ONEWEB-0230             
1 48769U 21045C   25170.67551249  .00000199  00000+0  49355-3 0  9997
2 48769  87.9036 331.4965 0001716  96.9415 263.1911 13.15548882197004
ONEWEB-0237             
1 48770U 21045D   25170.36020441  .00000231  00000+0  57830-3 0  9994
2 48770  87.9058 331.5361 0002020 104.5544 255.5810 13.15548204196683
ONEWEB-0235             
1 48771U 21045E   25170.41089662 -.00000024  00000+0 -98387-4 0  9996
2 48771  87.9048 331.5058 0002123 110.8757 249.2600 13.15546902196686
ONEWEB-0242             
1 48772U 21045F   25170.70878761 -.00000022  00000+0 -93531-4 0  9999
2 48772  87.9047 331.4317 0001816 103.1869 256.9464 13.15547388196761
ONEWEB-0241             
1 48773U 21045G   25170.69610763 -.00000003  00000+0 -41923-4 0  9991
2 48773  87.9033 331.4948 0002275  98.9123 261.2265 13.15546936196677
ONEWEB-0243             
1 48774U 21045H   25170.42358016  .00000133  00000+0  31999-3 0  9996
2 48774  87.9058 331.5325 0001999 109.1547 250.9800 13.15548696196666
ONEWEB-0222             
1 48775U 21045J   25170.40692411 -.00000183  00000+0 -51991-3 0  9996
2 48775  87.9043 331.4973 0001998  97.8410 262.2947 13.15546551196701
ONEWEB-0244             
1 48776U 21045K   25170.35702363  .00000150  00000+0  36497-3 0  9995
2 48776  87.9045 331.4870 0001778 102.2485 257.8844 13.15548442197268
ONEWEB-0247             
1 48777U 21045L   25170.42991804  .00000203  00000+0  50583-3 0  9995
2 48777  87.9054 331.5422 0002342 120.1561 239.9802 13.15548298196718
ONEWEB-0245             
1 48778U 21045M   25170.42516583  .00000156  00000+0  38043-3 0  9997
2 48778  87.9046 331.5091 0002075  95.2181 264.9186 13.15547915196689
ONEWEB-0229             
1 48779U 21045N   25170.42040393  .00000077  00000+0  16963-3 0  9998
2 48779  87.9050 331.5084 0001829 100.9953 259.1383 13.15547493196714
ONEWEB-0228             
1 48780U 21045P   25170.37776808  .00000135  00000+0  32548-3 0  9993
2 48780  87.9049 331.4923 0001908  99.8937 260.2409 13.15548866196628
ONEWEB-0232             
1 48781U 21045Q   25170.42833910  .00000265  00000+0  66886-3 0  9994
2 48781  87.9040 331.4783 0001868  97.2068 262.9275 13.15548249196957
ONEWEB-0231             
1 48782U 21045R   25170.40614029 -.00000025  00000+0 -10094-3 0  9997
2 48782  87.9037 331.5383 0001966 104.0695 256.0654 13.15547259196644
ONEWEB-0234             
1 48783U 21045S   25170.20216294  .00000260  00000+0  66203-3 0  9990
2 48783  87.9042 331.5372 0002366  72.2072 287.9316 13.15028195196752
ONEWEB-0238             
1 48784U 21045T   25170.67969303  .00000112  00000+0  26010-3 0  9996
2 48784  87.9037 331.4517 0002032  87.7548 272.3815 13.16065266196715
ONEWEB-0240             
1 48785U 21045U   25170.69373806  .00000020  00000+0  20096-4 0  9993
2 48785  87.9048 331.4227 0002206  98.3717 261.7663 13.15547587196741
ONEWEB-0246             
1 48786U 21045V   25170.68819130  .00000082  00000+0  18373-3 0  9990
2 48786  87.9052 331.4345 0001791 100.2514 259.8818 13.15547652196613
ONEWEB-0210             
1 48787U 21045W   25170.35861719  .00000256  00000+0  64475-3 0  9992
2 48787  87.9048 331.5000 0001936 116.9305 243.2024 13.15548225196614
ONEWEB-0214             
1 48788U 21045X   25170.67234969  .00000174  00000+0  42697-3 0  9990
2 48788  87.9050 331.4269 0001706 111.1582 248.9731 13.15548304196629
ONEWEB-0221             
1 48789U 21045Y   25170.67868772  .00000201  00000+0  49942-3 0  9997
2 48789  87.9054 331.4538 0002068  97.7148 262.4217 13.15548333196714
ONEWEB-0213             
1 48790U 21045Z   25170.43942382  .00000111  00000+0  26050-3 0  9998
2 48790  87.9051 331.5087 0001950 104.0671 256.0676 13.15549257196742
ONEWEB-0212             
1 48791U 21045AA  25170.41644115  .00000070  00000+0  15149-3 0  9991
2 48791  87.9043 331.4974 0001901  94.2132 265.9216 13.15547782196735
ONEWEB-0227             
1 48792U 21045AB  25169.95931384  .00000083  00000+0  18553-3 0  9992
2 48792  87.9051 331.6055 0001928  98.2000 261.9349 13.15548492196624
ONEWEB-0226             
1 48793U 21045AC  25170.40930229 -.00000041  00000+0 -14292-3 0  9994
2 48793  87.9050 331.5199 0001883 107.4426 252.6910 13.15546881196651
ONEWEB-0224             
1 48794U 21045AD  25170.67710186  .00000179  00000+0  44175-3 0  9995
2 48794  87.9056 331.5036 0002814  91.6541 268.4911 13.15548806196616
ONEWEB-0233             
1 48795U 21045AE  25170.68171436  .00000136  00000+0  32669-3 0  9994
2 48795  87.9054 331.5108 0002144 101.5787 258.5584 13.15548086196632
ONEWEB-0190             
1 48796U 21045AF  25170.36495281  .00000191  00000+0  47359-3 0  9990
2 48796  87.9055 331.5379 0002343 113.5964 246.5412 13.15548264196663
ONEWEB-0236             
1 48797U 21045AG  25170.38237188  .00000087  00000+0  19642-3 0  9991
2 48797  87.9061 331.5423 0001970  96.3952 263.7403 13.15547614196558
ONEWEB-0248             
1 48798U 21045AH  25170.69928421  .00000047  00000+0  91052-4 0  9995
2 48798  87.9049 331.4372 0002520 100.8738 259.2676 13.15547731196756
ONEWEB-0225             
1 48799U 21045AJ  25170.41723534  .00000051  00000+0  10218-3 0  9993
2 48799  87.9053 331.5228 0002277 110.1576 249.9799 13.15546778196725
ONEWEB-0215             
1 48800U 21045AK  25170.69135183  .00000035  00000+0  58626-4 0  9991
2 48800  87.9049 331.4217 0002437 106.9742 253.1656 13.15547335196635
ONEWEB-0216             
1 48801U 21045AL  25170.70086650  .00000028  00000+0  41246-4 0  9990
2 48801  87.9048 331.4650 0001714 101.7640 258.3682 13.15548148196643
ONEWEB-0239             
1 48802U 21045AM  25170.70561909 -.00000072  00000+0 -22626-3 0  9997
2 48802  87.9058 331.4722 0002663 102.0263 258.1166 13.15547827196686
ONEWEB-0249             
1 48967U 21060A   25170.62259087  .00000064  00000+0  13298-3 0  9992
2 48967  87.9047 301.0439 0001983  98.3297 261.8059 13.16593559191908
ONEWEB-0250             
1 48968U 21060B   25170.37955656  .00000133  00000+0  27328-3 0  9996
2 48968  87.9048 300.0364 0002899  90.4587 269.6881 13.25807860192147
ONEWEB-0252             
1 48970U 21060D   25170.65425627  .00000138  00000+0  32841-3 0  9991
2 48970  87.9048 301.0310 0001600 106.3362 253.7945 13.16593535191953
ONEWEB-0253             
1 48971U 21060E   25170.64317259  .00000134  00000+0  31757-3 0  9993
2 48971  87.9044 301.0375 0002044 104.9352 255.2005 13.16593456191885
ONEWEB-0254             
1 48972U 21060F   25170.65267192  .00000168  00000+0  40628-3 0  9999
2 48972  87.9050 301.0198 0002351 102.9200 257.2193 13.16596823191888
ONEWEB-0255             
1 48973U 21060G   25170.61468081  .00000084  00000+0  18536-3 0  9996
2 48973  87.9045 301.0602 0002155 103.4357 256.7014 13.16593367191958
ONEWEB-0256             
1 48974U 21060H   25170.64079817  .00000088  00000+0  19544-3 0  9999
2 48974  87.9040 301.0662 0001748 101.4244 258.7083 13.16593598191921
ONEWEB-0257             
1 48975U 21060J   25170.59725760  .00000136  00000+0  32120-3 0  9998
2 48975  87.9049 301.0396 0001999 106.0302 254.1050 13.16593130193163
ONEWEB-0258             
1 48976U 21060K   25170.59885229  .00000065  00000+0  13565-3 0  9999
2 48976  87.9044 301.0654 0001963  98.3470 261.7884 13.16593694191887
ONEWEB-0259             
1 48977U 21060L   25170.59250894  .00000188  00000+0  45910-3 0  9999
2 48977  87.9045 301.0504 0002064 101.2541 258.8822 13.16593447193202
ONEWEB-0260             
1 48978U 21060M   25170.65979687  .00000059  00000+0  12074-3 0  9997
2 48978  87.9041 301.0645 0001510 112.8059 247.3231 13.16593686191909
ONEWEB-0261             
1 48979U 21060N   25170.40174283 -.00000022  00000+0 -91826-4 0  9995
2 48979  87.9041 301.1167 0002092 112.3947 247.7405 13.16594222191923
ONEWEB-0262             
1 48980U 21060P   25170.60992673  .00000105  00000+0  24086-3 0  9993
2 48980  87.9048 301.0353 0002246  99.6813 260.4571 13.16592982193219
ONEWEB-0263             
1 48981U 21060Q   25170.64159967  .00000098  00000+0  22199-3 0  9993
2 48981  87.9044 301.0542 0002292 106.9013 253.2369 13.16593152191887
ONEWEB-0264             
1 48982U 21060R   25170.37482608 -.00000034  00000+0 -12141-3 0  9993
2 48982  87.9043 301.1133 0001956 102.3046 257.8304 13.16594747191853
ONEWEB-0266             
1 48984U 21060T   25170.39618910  .00000000  00000+0 -33375-4 0  9999
2 48984  87.9046 301.0819 0002000  94.7389 265.3970 13.16593242191844
ONEWEB-0267             
1 48985U 21060U   25170.33127348  .00000029  00000+0  42310-4 0  9993
2 48985  87.9046 301.0972 0002034 107.8430 252.2923 13.16593691191846
ONEWEB-0268             
1 48986U 21060V   25170.37561074  .00000028  00000+0  40120-4 0  9992
2 48986  87.9047 301.0949 0001815 103.4302 256.7032 13.16594150192110
ONEWEB-0269             
1 48987U 21060W   25170.66059165  .00000079  00000+0  17307-3 0  9994
2 48987  87.9043 301.0722 0001874  99.4773 260.6570 13.16593421191926
ONEWEB-0270             
1 48988U 21060X   25170.37403221  .00000085  00000+0  18960-3 0  9992
2 48988  87.9044 301.0987 0002295 106.7959 253.3423 13.16593645191921
